NORAD_CAT_ID,OBJECT_NAME,OBJECT_TYPE,EPOCH,MEAN_MOTION,ECCENTRICITY,INCLINATION,RA_OF_ASC_NODE,ARG_OF_PERICENTER,MEAN_ANOMALY,BSTAR,MEAN_MOTION_DOT,MEAN_MOTION_DDOT,TLE_LINE0,TLE_LINE1,TLE_LINE2,SEMIMAJOR_AXIS,PERIOD,APOGEE,PERIGEE,DECAYED
49176.0,STARLINK-3069,PAYLOAD,2023-10-08 03:17:12,14.98321258,0.0002965,69.9983,322.2041,268.3381,91.7439,0.00017272,1.968e-05,0.0,0 STARLINK-3069,1 49176U 21082AY  23281.13694851  .00001968  00000-0  17272-3 0  9999,2 49176  69.9983 322.2041 0002965 268.3381  91.7439 14.98321258114619,6950.22,96.108,574.146,570.024,0.0
49176.0,STARLINK-3069,PAYLOAD,2023-10-08 09:41:44,14.98332533,0.0002994,69.9983,321.5315,269.9586,90.123,0.00010716,1.186e-05,0.0,0 STARLINK-3069,1 49176U 21082AY  23281.40398385  .00001186  00000-0  10716-3 0  9990,2 49176  69.9983 321.5315 0002994 269.9586  90.1230 14.98332533114655,6950.185,96.107,574.131,569.969,0.0
49176.0,STARLINK-3069,PAYLOAD,2023-10-08 12:54:00,14.9833445,0.0002976,69.9984,321.1948,269.8875,90.1943,0.00012624,1.414e-05,0.0,0 STARLINK-3069,1 49176U 21082AY  23281.53750218  .00001414  00000-0  12624-3 0  9995,2 49176  69.9984 321.1948 0002976 269.8875  90.1943 14.98334450114677,6950.179,96.107,574.113,569.976,0.0
49176.0,STARLINK-3069,PAYLOAD,2023-10-09 09:43:45,14.98335573,0.0002691,69.9992,319.0083,264.5589,95.5263,4.5013e-05,4.44e-06,0.0,0 STARLINK-3069,1 49176U 21082AY  23282.40538198  .00000444  00000-0  45013-4 0  9994,2 49176  69.9992 319.0083 0002691 264.5589  95.5263 14.98335573114806,6950.176,96.107,573.911,570.17,0.0
49176.0,STARLINK-3069,PAYLOAD,2023-10-09 12:56:01,14.98335246,0.000266,69.9991,318.6714,265.3607,94.7248,6.9185e-05,7.33e-06,0.0,0 STARLINK-3069,1 49176U 21082AY  23282.53890133  .00000733  00000-0  69185-4 0  9995,2 49176  69.9991 318.6714 0002660 265.3607  94.7248 14.98335246114820,6950.177,96.107,573.89,570.193,0.0
49176.0,STARLINK-3069,PAYLOAD,2023-10-10 12:58:01,14.98336527,0.0002639,69.9989,316.1468,263.008,97.0779,8.0182e-05,8.64e-06,0.0,0 STARLINK-3069,1 49176U 21082AY  23283.54029825  .00000864  00000-0  80182-4 0  9994,2 49176  69.9989 316.1468 0002639 263.0080  97.0779 14.98336527114976,6950.173,96.107,573.872,570.204,0.0
49176.0,STARLINK-3069,PAYLOAD,2023-10-10 19:22:34,14.98328899,0.0002454,69.9995,315.4712,274.6422,85.4457,1.1186e-05,4.1e-07,0.0,0 STARLINK-3069,1 49176U 21082AY  23283.80734520  .00000041  00000-0  11186-4 0  9993,2 49176  69.9995 315.4712 0002454 274.6422  85.4457 14.98328899115013,6950.196,96.107,573.767,570.356,0.0
49176.0,STARLINK-3069,PAYLOAD,2023-10-11 11:23:55,14.98325307,0.0002716,69.9988,313.7887,271.9785,88.1063,-6.6413e-06,-1.72e-06,0.0,0 STARLINK-3069,1 49176U 21082AY  23284.47494869 -.00000172  00000-0 -66413-5 0  9997,2 49176  69.9988 313.7887 0002716 271.9785  88.1063 14.98325307115117,6950.207,96.107,573.96,570.185,0.0
49176.0,STARLINK-3069,PAYLOAD,2023-10-11 19:24:35,14.98335688,0.0002906,69.9985,312.9458,273.7834,86.2992,-0.0001468,-1.844e-05,0.0,0 STARLINK-3069,1 49176U 21082AY  23284.80874476 -.00001844  00000-0 -14680-3 0  9994,2 49176  69.9985 312.9458 0002906 273.7834  86.2992 14.98335688115163,6950.175,96.107,574.06,570.021,0.0
49176.0,STARLINK-3069,PAYLOAD,2023-10-12 11:25:56,14.98332084,0.0002605,69.9984,311.2626,264.8259,95.2603,8.0917e-05,8.73e-06,0.0,0 STARLINK-3069,1 49176U 21082AY  23285.47634263  .00000873  00000-0  80917-4 0  9992,2 49176  69.9984 311.2626 0002605 264.8259  95.2603 14.98332084115266,6950.186,96.107,573.862,570.241,0.0
49176.0,STARLINK-3069,PAYLOAD,2023-10-12 19:26:36,14.983307,0.0002543,69.9989,310.4204,272.8065,87.2803,1.7291e-05,1.13e-06,0.0,0 STARLINK-3069,1 49176U 21082AY  23285.81014553  .00000113  00000-0  17291-4 0  9996,2 49176  69.9989 310.4204 0002543 272.8065  87.2803 14.98330700115311,6950.191,96.107,573.823,570.288,0.0
49176.0,STARLINK-3069,PAYLOAD,2023-10-13 11:27:56,14.98331289,0.0002844,69.9982,308.7379,271.3158,88.7675,0.00013149,1.476e-05,0.0,0 STARLINK-3069,1 49176U 21082AY  23286.47774234  .00001476  00000-0  13149-3 0  9998,2 49176  69.9982 308.7379 0002844 271.3158  88.7675 14.98331289115415,6950.189,96.107,574.031,570.077,0.0
49176.0,STARLINK-3069,PAYLOAD,2023-10-13 19:28:37,14.98332788,0.0002934,69.998,307.8954,271.4703,88.612,0.0001191,1.328e-05,0.0,0 STARLINK-3069,1 49176U 21082AY  23286.81154121  .00001328  00000-0  11910-3 0  9993,2 49176  69.9980 307.8954 0002934 271.4703  88.6120 14.98332788115463,6950.184,96.107,574.088,570.01,0.0
49176.0,STARLINK-3069,PAYLOAD,2023-10-14 11:29:57,14.9833841,0.0002829,69.9979,306.212,271.1072,88.9763,0.00010013,1.102e-05,0.0,0 STARLINK-3069,1 49176U 21082AY  23287.47913634  .00001102  00000-0  10013-3 0  9991,2 49176  69.9979 306.2120 0002829 271.1072  88.9763 14.98338410115563,6950.167,96.106,573.998,570.066,0.0
49176.0,STARLINK-3069,PAYLOAD,2023-10-15 05:07:26,14.98367254,0.0001761,69.9982,304.3599,285.0996,74.9968,-0.00084229,-0.00010137,0.0,0 STARLINK-3069,1 49176U 21082AY  23288.21350036 -.00010137  00000-0 -84229-3 0  9995,2 49176  69.9982 304.3599 0001761 285.0996  74.9968 14.98367254115671,6950.078,96.105,573.167,570.719,0.0
49176.0,STARLINK-3069,PAYLOAD,2023-10-15 11:31:59,14.9831889,0.0001385,69.9981,303.6871,224.7563,135.3484,-1.9677e-05,-3.27e-06,0.0,0 STARLINK-3069,1 49176U 21082AY  23288.48055413 -.00000327  00000-0 -19677-4 0  9991,2 49176  69.9981 303.6871 0001385 224.7563 135.3484 14.98318890115719,6950.227,96.108,573.055,571.13,0.0
49176.0,STARLINK-3069,PAYLOAD,2023-10-15 17:56:31,14.98328433,0.0002945,69.9976,303.0134,271.0692,89.0129,-1.2185e-05,-2.38e-06,0.0,0 STARLINK-3069,1 49176U 21082AY  23288.74758690 -.00000238  00000-0 -12185-4 0  9995,2 49176  69.9976 303.0134 0002945 271.0692  89.0129 14.98328433115759,6950.198,96.107,574.11,570.016,0.0
49176.0,STARLINK-3069,PAYLOAD,2023-10-16 08:21:43,14.98333084,0.0002809,69.9975,301.4979,272.7674,87.3163,3.8321e-05,3.64e-06,0.0,0 STARLINK-3069,1 49176U 21082AY  23289.34842306  .00000364  00000-0  38321-4 0  9998,2 49176  69.9975 301.4979 0002809 272.7674  87.3163 14.98333084115841,6950.183,96.107,574.001,570.096,0.0
49176.0,STARLINK-3069,PAYLOAD,2023-10-16 11:33:59,14.98334296,0.0002747,69.9974,301.1606,271.7515,88.3329,5.2166e-05,5.3e-06,0.0,0 STARLINK-3069,1 49176U 21082AY  23289.48194166  .00000530  00000-0  52166-4 0  9995,2 49176  69.9974 301.1606 0002747 271.7515  88.3329 14.98334296115861,6950.18,96.107,573.954,570.135,0.0
49176.0,STARLINK-3069,PAYLOAD,2023-10-17 09:59:52,14.98328892,0.0002813,69.9983,298.8053,268.9444,91.1393,0.00013306,1.495e-05,0.0,0 STARLINK-3069,1 49176U 21082AY  23290.41658327  .00001495  00000-0  13306-3 0  9997,2 49176  69.9983 298.8053 0002813 268.9444  91.1393 14.98328892116007,6950.196,96.107,574.016,570.106,0.0
49176.0,STARLINK-3069,PAYLOAD,2023-10-18 02:01:13,14.98331951,0.0002852,69.9988,297.1226,270.0057,90.0775,5.8856e-06,-2.3e-07,0.0,0 STARLINK-3069,1 49176U 21082AY  23291.08418505 -.00000023  00000-0  58856-5 0  9991,2 49176  69.9988 297.1226 0002852 270.0057  90.0775 14.98331951116106,6950.187,96.107,574.034,570.07,0.0
49176.0,STARLINK-3069,PAYLOAD,2023-10-18 10:01:53,14.98331298,0.0002789,69.998,296.2809,267.4363,92.6477,3.2102e-05,2.9e-06,0.0,0 STARLINK-3069,1 49176U 21082AY  23291.41798424  .00000290  00000-0  32102-4 0  9999,2 49176  69.9980 296.2809 0002789 267.4363  92.6477 14.98331298116150,6950.189,96.107,573.992,570.115,0.0
49176.0,STARLINK-3069,PAYLOAD,2023-10-19 10:03:54,14.98337919,0.0002862,69.9978,293.7546,268.5947,91.4884,8.1351e-05,8.78e-06,0.0,0 STARLINK-3069,1 49176U 21082AY  23292.41937700  .00000878  00000-0  81351-4 0  9994,2 49176  69.9978 293.7546 0002862 268.5947  91.4884 14.98337919116301,6950.168,96.106,574.023,570.044,0.0
49176.0,STARLINK-3069,PAYLOAD,2023-10-19 18:04:34,14.98334086,0.0002798,69.998,292.9128,267.7708,92.3131,3.0817e-05,2.75e-06,0.0,0 STARLINK-3069,1 49176U 21082AY  23292.75317982  .00000275  00000-0  30817-4 0  9997,2 49176  69.9980 292.9128 0002798 267.7708  92.3131 14.98334086116357,6950.18,96.107,573.99,570.101,0.0
49176.0,STARLINK-3069,PAYLOAD,2023-10-20 03:41:23,14.98329045,0.0002965,69.9978,291.903,269.9437,90.1382,3.8504e-05,3.66e-06,0.0,0 STARLINK-3069,1 49176U 21082AY  23293.15374246  .00000366  00000-0  38504-4 0  9990,2 49176  69.9978 291.9030 0002965 269.9437  90.1382 14.98329045116414,6950.196,96.107,574.122,570.0,0.0
49176.0,STARLINK-3069,PAYLOAD,2023-10-20 10:05:55,14.98331848,0.0002867,69.9981,291.2298,270.6641,89.4189,6.1902e-05,6.46e-06,0.0,0 STARLINK-3069,1 49176U 21082AY  23293.42078022  .00000646  00000-0  61902-4 0  9992,2 49176  69.9981 291.2298 0002867 270.6641  89.4189 14.98331848116458,6950.187,96.107,574.045,570.06,0.0
49176.0,STARLINK-3069,PAYLOAD,2023-10-20 21:18:51,14.98331661,0.00028,69.9982,290.0522,267.8088,92.2751,2.5727e-05,2.14e-06,0.0,0 STARLINK-3069,1 49176U 21082AY  23293.88810058  .00000214  00000-0  25727-4 0  9991,2 49176  69.9982 290.0522 0002800 267.8088  92.2751 14.98331661116524,6950.188,96.107,573.999,570.107,0.0
49176.0,STARLINK-3069,PAYLOAD,2023-10-21 08:31:48,14.98322344,0.000267,69.9981,288.8729,268.0377,92.0476,0.00020015,2.295e-05,0.0,0 STARLINK-3069,1 49176U 21082AY  23294.35542279  .00002295  00000-0  20015-3 0  9996,2 49176  69.9981 288.8729 0002670 268.0377  92.0476 14.98322344116593,6950.217,96.107,573.937,570.226,0.0
49176.0,STARLINK-3069,PAYLOAD,2023-10-21 16:32:30,14.9831381,0.0002765,69.9993,288.0283,278.4489,81.6356,-8.2304e-05,-1.074e-05,0.0,0 STARLINK-3069,1 49176U 21082AY  23294.68923612 -.00001074  00000-0 -82304-4 0  9992,2 49176  69.9993 288.0283 0002765 278.4489  81.6356 14.98313810116642,6950.243,96.108,574.03,570.186,0.0
49176.0,STARLINK-3069,PAYLOAD,2023-10-22 08:33:51,14.98305523,0.000217,69.999,286.3473,261.5039,98.5875,-0.00014007,-1.763e-05,0.0,0 STARLINK-3069,1 49176U 21082AY  23295.35685069 -.00001763  00000-0 -14007-3 0  9997,2 49176  69.9990 286.3473 0002170 261.5039  98.5875 14.98305523116741,6950.269,96.109,573.642,570.625,0.0
